1 27424U 02022A   10027.47490860  .00000053  00000-0  21899-4 0  5462
2 27424 098.2040 331.0648 0001296 104.9949 255.1393 14.57117606411421